COSMOS 2425 (716)       
1 29670U 06062A   21011.31212652  .00000050  00000-0  00000-0 0  9990
2 29670  64.8874 260.7614 0024565 348.0110 203.1081  2.13107630109321
COSMOS 2433 (720)       
1 32275U 07052A   21011.54647347 -.00000042  00000-0  00000-0 0  9995
2 32275  66.0347  21.9985 0005335 255.2383 295.5730  2.13104341102840
COSMOS 2432 (719)       
1 32276U 07052B   21011.35147416 -.00000041  00000-0  00000-0 0  9996
2 32276  66.0468  22.0975 0011359 316.2308  34.6341  2.13103630102833
COSMOS 2434 (721)       
1 32393U 07065A   21010.93860534  .00000052  00000-0  00000-0 0  9997
2 32393  64.5055 259.3054 0003472  72.0922 260.3492  2.13103130101533
COSMOS 2436 (723)       
1 32395U 07065C   21011.46841387  .00000053  00000-0  00000-0 0  9994
2 32395  64.5128 259.3386 0015771   2.1492 152.9033  2.13102984101482
COSMOS 2456 (730)       
1 36111U 09070A   21011.64118337 -.00000012  00000-0  00000+0 0  9999
2 36111  64.2534 138.9595 0002330 337.4148 346.6538  2.13099180 86211
COSMOS 2457 (733)       
1 36112U 09070B   21011.40155428 -.00000011  00000-0  00000-0 0  9996
2 36112  64.2363 138.8565 0006548 152.3907 110.9664  2.13101430 86214
COSMOS 2459 (731)       
1 36400U 10007A   21011.59028498 -.00000044  00000-0  00000-0 0  9990
2 36400  65.9334  20.9424 0025398 343.5178  96.9875  2.13105148 84566
COSMOS 2461 (735)       
1 36401U 10007B   21011.55484664 -.00000044  00000-0  00000-0 0  9998
2 36401  65.9276  20.9081 0019402 359.2735  56.0762  2.13103760 84574
COSMOS 2460 (732)       
1 36402U 10007C   21011.24275880 -.00000042  00000-0  00000-0 0  9991
2 36402  65.9153  20.8780 0002623 264.7017 214.4647  2.13106635 84569
COSMOS 2464 (736)       
1 37139U 10041C   21011.54219264  .00000054  00000-0  00000+0 0  9995
2 37139  64.1039 258.6190 0028683  11.2355 286.3332  2.13100812 80624
COSMOS 2471 (701K)      
1 37372U 11009A   21011.31880513 -.00000042  00000-0  00000-0 0  9994
2 37372  65.9135  20.8150 0010729 232.8964 108.1188  2.13107497 76837
COSMOS 2476 (744)       
1 37867U 11064A   21011.34615457 -.00000009  00000-0  00000-0 0  9993
2 37867  64.5511 140.1203 0019003 232.7145 125.9979  2.13101878 71554
COSMOS 2477 (745)       
1 37868U 11064B   21011.46988800 -.00000010  00000-0  00000-0 0  9994
2 37868  64.5584 140.1749 0016494 232.9239  39.1240  2.13101699 71511
COSMOS 2475 (743)       
1 37869U 11064C   21011.06201998 -.00000007  00000-0  00000-0 0  9993
2 37869  64.5656 140.1922 0019882 256.1430  20.5838  2.13101864 71511
COSMOS 2485 (747)       
1 39155U 13019A   21011.13786743 -.00000007  00000-0  00000-0 0  9999
2 39155  64.7176 140.4423 0019725 228.1324  15.3181  2.13101845 60022
COSMOS 2492 (754)       
1 39620U 14012A   21011.23868782 -.00000042  00000-0  00000-0 0  9994
2 39620  65.8054  20.6320 0014692 315.1967  40.5281  2.13103345 52972
COSMOS 2500 (755)       
1 40001U 14032A   21011.39439079 -.00000043  00000-0  00000-0 0  9992
2 40001  65.7450  20.5265 0008102 220.7298 114.4484  2.13102539 51193
COSMOS 2501 (702K)      
1 40315U 14075A   21011.37454619  .00000052  00000-0  00000-0 0  9991
2 40315  63.8181 259.4917 0015851 210.7159 275.0471  2.13101388 47604
COSMOS 2514 (751)       
1 41330U 16008A   21011.22021859 -.00000043  00000-0  00000-0 0  9998
2 41330  65.5471  20.3534 0011779 223.9189 160.4850  2.13102928 38369
COSMOS 2516 (753)       
1 41554U 16032A   21011.43942674  .00000052  00000-0  00000-0 0  9992
2 41554  64.0416 259.6208 0011930 219.8442 224.6338  2.13106591 35978
COSMOS 2522 (752)       
1 42939U 17055A   21011.73662829  .00000052  00000-0  00000+0 0  9999
2 42939  64.2760 259.8510 0006565 255.0001 283.4335  2.13102111 25736
COSMOS 2527 (756)       
1 43508U 18053A   21011.46021578 -.00000009  00000-0  00000-0 0  9995
2 43508  64.8811 140.3229 0006907 219.4062 138.9538  2.13102376 20012
COSMOS 2529 (757)       
1 43687U 18086A   21011.13685052  .00000051  00000-0  00000+0 0  9991
2 43687  64.4895 260.0501 0009412 278.1906 115.6818  2.13102158 17033
COSMOS 2534 (758)       
1 44299U 19030A   21011.55315453  .00000052  00000-0  00000+0 0  9993
2 44299  64.5595 259.8681 0012873 295.4597 192.7077  2.13101987 12687
COSMOS 2544 (759)       
1 44850U 19088A   21011.54884942 -.00000010  00000-0  00000-0 0  9998
2 44850  64.8658 140.1830 0009974 259.2748 210.9810  2.13102354  8463
COSMOS 2545 (760)       
1 45358U 20018A   21011.19590787 -.00000044  00000-0  00000-0 0  9996
2 45358  64.8770  21.3931 0011637 253.2926 156.4165  2.13102818  6409
